BEIDOU 3 (C01)          
1 36287U 10001A   22021.56503271 -.00000270  00000+0  00000+0 0  9992
2 36287   1.8319  46.2014 0001454  40.3284  18.1989  1.00270313 44047
BEIDOU 5 (C06)          
1 36828U 10036A   22021.28973208 -.00000090  00000+0  00000+0 0  9991
2 36828  54.1886 177.5795 0027156 178.0408 336.5675  1.00289224 42101
BEIDOU 6 (C04)          
1 37210U 10057A   22021.63894808 -.00000101  00000+0  00000+0 0  9990
2 37210   0.9037  50.9209 0005858 165.8850 294.1805  1.00273468 41160
BEIDOU 7 (C07)          
1 37256U 10068A   22021.56307326 -.00000174  00000+0  00000+0 0  9998
2 37256  50.4729 291.4047 0017848 188.8810 309.4556  1.00296762 40673
BEIDOU 8 (C08)          
1 37384U 11013A   22021.55682211 -.00000157  00000+0  00000+0 0  9990
2 37384  60.0840  55.7194 0021339 193.1519 179.0413  1.00294347 39550
BEIDOU 9 (C09)          
1 37763U 11038A   22021.41205184 -.00000040  00000+0  00000+0 0  9994
2 37763  54.4730 180.0524 0087363 225.1829 318.8856  1.00265011 38520
BEIDOU 10 (C10)         
1 37948U 11073A   22021.56674803 -.00000129  00000+0  00000+0 0  9990
2 37948  50.5865 291.0367 0078207 219.3482 269.5278  1.00285956 37288
BEIDOU 11 (C05)         
1 38091U 12008A   22021.60363137  .00000066  00000+0  00000+0 0  9998
2 38091   2.0367  71.8526 0007131 274.5373  50.6044  1.00274953 36350
BEIDOU 12 (C11)         
1 38250U 12018A   22020.81606082 -.00000067  00000+0  00000+0 0  9999
2 38250  56.7289 358.4353 0024670 254.5628 331.6355  1.86234304 66334
BEIDOU 13 (C12)         
1 38251U 12018B   22021.28734502 -.00000065  00000+0  00000+0 0  9999
2 38251  56.6493 357.7544 0015564 259.7905 326.6643  1.86234185 66344
BEIDOU 15 (C14)         
1 38775U 12050B   22021.20090487  .00000009  00000+0  00000+0 0  9992
2 38775  55.3175 116.6446 0012204 322.0560  43.3017  1.86231178 63726
BEIDOU 16 (C02)         
1 38953U 12059A   22021.55386877 -.00000165  00000+0  00000+0 0  9992
2 38953   1.6269  84.5619 0012228 277.9070  41.8335  1.00270368 33922
BEIDOU 17 (C31)         
1 40549U 15019A   22021.16949725 -.00000168  00000+0  00000+0 0  9992
2 40549  52.1380 314.4664 0035691 190.9335 132.4313  1.00274018 24955
BEIDOU 18 (C57)         
1 40748U 15037A   22021.35249360 -.00000067  00000+0  00000+0 0  9990
2 40748  55.9046 356.7078 0004380 335.7511 204.0395  1.86233281 44173
BEIDOU 19 (C58)         
1 40749U 15037B   22021.21895635 -.00000067  00000+0  00000+0 0  9998
2 40749  55.9078 356.7016 0006854 306.5196 278.8622  1.86232080 44161
BEIDOU 20 (C18)         
1 40938U 15053A   22021.56096215 -.00000102  00000+0  00000+0 0  9991
2 40938  51.7266 277.5640 0042826 194.1248 307.2586  1.00279637 23231
BEIDOU IGSO-6 (C13)     
1 41434U 16021A   22021.55596200 -.00000133  00000+0  00000+0 0  9991
2 41434  57.8828  54.3616 0045111 217.3398 145.0437  1.00270348 21367
BEIDOU-2 G7 (C03)       
1 41586U 16037A   22021.52966218 -.00000343  00000+0  00000+0 0  9996
2 41586   1.6509  67.1346 0008748 358.1212 356.7285  1.00266378 20666
BEIDOU-3 M1 (C19)       
1 43001U 17069A   22021.40841199  .00000010  00000+0  00000+0 0  9993
2 43001  55.4711 116.6181 0008810 283.9632  16.6658  1.86231565 28657
BEIDOU-3 M2 (C20)       
1 43002U 17069B   22021.37439451  .00000010  00000+0  00000+0 0  9994
2 43002  55.4709 116.6552 0006904 308.2430  12.7695  1.86231331 28644
BEIDOU-3 M3 (C27)       
1 43107U 18003A   22021.44004770 -.00000067  00000+0  00000+0 0  9992
2 43107  55.3522 357.6868 0003954  35.8612 135.1603  1.86232414 27412
BEIDOU-3 M4 (C28)       
1 43108U 18003B   22021.38275124 -.00000068  00000+0  00000+0 0  9990
2 43108  55.3468 357.6795 0004087 262.5488 274.7727  1.86230881 27412
BEIDOU-3 M5 (C21)       
1 43207U 18018A   22021.02774471  .00000009  00000+0  00000+0 0  9990
2 43207  55.4295 116.7495 0004263 334.3154  25.6885  1.86231477 26796
BEIDOU-3 M6 (C22)       
1 43208U 18018B   22021.09443644  .00000009  00000+0  00000+0 0  9993
2 43208  55.4292 116.7527 0006749 294.1758  65.7794  1.86231600 26796
BEIDOU-3 M7 (C29)       
1 43245U 18029A   22021.54646906 -.00000067  00000+0  00000+0 0  9997
2 43245  55.2734 355.4619 0001473 295.6014 217.1063  1.86232528 25959
BEIDOU-3 M8 (C30)       
1 43246U 18029B   22021.52613799 -.00000067  00000+0  10000-3 0  9995
2 43246  55.2712 355.4936 0004720 339.7452 205.7457  1.86232768 25947
BEIDOU IGSO-7 (C16)     
1 43539U 18057A   22021.34406378 -.00000092  00000+0  00000+0 0  9997
2 43539  55.0682 177.0066 0040611 220.5251 318.4981  1.00254902 13032
BEIDOU-3 M9 (C23)       
1 43581U 18062A   22021.34919363  .00000077  00000+0  00000+0 0  9995
2 43581  54.3220 237.1241 0002720 321.9696 315.4787  1.86231925 23687
BEIDOU-3 M10 (C24)      
1 43582U 18062B   22021.21771144  .00000076  00000+0  00000+0 0  9994
2 43582  54.3216 237.1188 0006887  16.5119 264.4282  1.86232340 23683
BEIDOU-3 M11 (C25)      
1 43602U 18067A   22020.67921906  .00000078  00000+0  00000+0 0  9996
2 43602  54.4013 235.7393 0007966  11.1223 310.4501  1.86231569 23161
BEIDOU-3 M12 (C26)      
1 43603U 18067B   22021.28764395  .00000078  00000+0  00000+0 0  9992
2 43603  54.3981 235.6848 0005000   5.7842 274.1183  1.86231521 23195
BEIDOU-3 M13 (C32)      
1 43622U 18072A   22021.27834605  .00000009  00000+0  00000+0 0  9994
2 43622  55.3963 116.3018 0005553 275.4375  27.9691  1.86231394 22703
BEIDOU-3 M14 (C33)      
1 43623U 18072B   22021.24051559  .00000009  00000+0  00000+0 0  9991
2 43623  55.3977 116.2951 0003310 303.6753  64.5997  1.86231373 22711
BEIDOU-3 M15 (C34)      
1 43647U 18078A   22021.21711167 -.00000069  00000+0  10000-3 0  9990
2 43647  55.1687 355.6447 0007212 349.4192 258.5263  1.86233004 22211
BEIDOU-3 M16 (C35)      
1 43648U 18078B   22021.35255179 -.00000068  00000+0  00000+0 0  9996
2 43648  55.1637 355.6468 0004705 354.3039 252.5038  1.86232201 22233
BEIDOU-3 G1 (C59)       
1 43683U 18085A   22021.59692289 -.00000267  00000+0  00000+0 0  9997
2 43683   0.8433 192.9451 0002611  32.7243 250.1828  1.00272915 11933
BEIDOU-3 M17 (C36)      
1 43706U 18093A   22021.13686149  .00000077  00000+0  00000+0 0  9998
2 43706  54.4036 237.0055 0007511 286.6946  73.2868  1.86231900 21592
BEIDOU-3 M18 (C37)      
1 43707U 18093B   22021.53944336  .00000077  00000+0  00000+0 0  9998
2 43707  54.4039 236.9836 0007655 317.6501  43.3176  1.86232165 21596
BEIDOU-3 IGSO-1 (C38)   
1 44204U 19023A   22021.55881632 -.00000193  00000+0  00000+0 0  9996
2 44204  56.3414  54.5564 0022509 195.0842 189.0294  1.00255136 10248
BEIDOU-2 G8             
1 44231U 19027A   22019.69979123 -.00000238  00000+0  00000+0 0  9995
2 44231   0.5207  65.3651 0005986 151.1590 298.8550  1.00266542  9930
BEIDOU-3 IGSO-2 (C39)   
1 44337U 19035A   22021.41416855 -.00000102  00000+0  00000+0 0  9992
2 44337  55.1112 173.0353 0022302 186.9138  25.6402  1.00298568  9574
BEIDOU-3 M23 (C45)      
1 44542U 19061A   22021.60909454  .00000078  00000+0  00000+0 0  9993
2 44542  54.6292 237.1021 0008830 352.5851   7.4636  1.86231461 15850
BEIDOU-3 M24 (C46)      
1 44543U 19061B   22020.65877125  .00000077  00000+0  00000+0 0  9996
2 44543  54.6265 237.1042 0005862 348.9706   5.0406  1.86231953 15826
BEIDOU-3 IGSO-3         
1 44709U 19073A   22021.45266828 -.00000166  00000+0  00000+0 0  9994
2 44709  57.5030 297.9102 0017788 183.9301 278.5866  1.00251702  8336
BEIDOU-3 M21            
1 44793U 19078A   22021.09447068 -.00000069  00000+0  10000-3 0  9996
2 44793  55.0177 355.6887 0006685 355.8594 123.9894  1.86232216 14709
BEIDOU-3 M22            
1 44794U 19078B   22021.31092082 -.00000069  00000+0  00000+0 0  9999
2 44794  54.9906 355.6759 0004724 347.0041 189.3445  1.86232690 14702
BEIDOU-3 M19            
1 44864U 19090A   22021.29207478  .00000009  00000+0  00000+0 0  9998
2 44864  55.3310 116.5209 0016102 264.2526  94.0010  1.86231724 14289
BEIDOU-3 M20            
1 44865U 19090B   22021.28181137  .00000009  00000+0  00000+0 0  9991
2 44865  55.3328 116.5532 0014105 278.7647 162.4964  1.86231663 14261
BEIDOU-3 G2             
1 45344U 20017A   22021.55299660 -.00000128  00000+0  00000+0 0  9999
2 45344   2.1824 345.1245 0000665  37.7677  17.1077  1.00270658  7141
BEIDOU-3 G3             
1 45807U 20040A   22021.60064517 -.00000341  00000+0  00000+0 0  9993
2 45807   1.7773 300.1232 0009349 349.9157 157.5465  1.00266332  5961
